COMMENT,ORIGINATOR,NORAD_CAT_ID,OBJECT_NAME,OBJECT_TYPE,CLASSIFICATION_TYPE,INTLDES,EPOCH,EPOCH_MICROSECONDS,MEAN_MOTION,ECCENTRICITY,INCLINATION,RA_OF_ASC_NODE,ARG_OF_PERICENTER,MEAN_ANOMALY,EPHEMERIS_TYPE,ELEMENT_SET_NO,REV_AT_EPOCH,BSTAR,MEAN_MOTION_DOT,MEAN_MOTION_DDOT,FILE,TLE_LINE0,TLE_LINE1,TLE_LINE2,OBJECT_ID,OBJECT_NUMBER,SEMIMAJOR_AXIS,PERIOD,APOGEE,PERIGEE,DECAYED
"GENERATED VIA SPACETRACK.ORG API","18 SPCS","55094","SPACEBEE-165","PAYLOAD","U","23001CP","2024-01-02 20:42:43","808256","15.30392349","0.0011821","97.4488","67.2025","26.0696","334.1137","0","999","5552","0.00091887","0.00027053","0","4151993","0 SPACEBEE-165","1 55094U 23001CP  24002.86300704  .00027053  00000-0  91887-3 0  9998","2 55094  97.4488  67.2025 0011821  26.0696 334.1137 15.30392349 55527","2023-001CP","55094","6852.778","94.094","482.743","466.542","0"
"GENERATED VIA SPACETRACK.ORG API","18 SPCS","55094","SPACEBEE-165","PAYLOAD","U","23001CP","2024-01-03 02:59:20","678496","15.30406529","0.0011822","97.4488","67.4649","25.1019","335.0794","0","999","5556","0.00091132","0.00026842","0","4152560","0 SPACEBEE-165","1 55094U 23001CP  24003.12454489  .00026842  00000-0  91132-3 0  9996","2 55094  97.4488  67.4649 0011822  25.1019 335.0794 15.30406529 55560","2023-001CP","55094","6852.735","94.093","482.702","466.499","0"
"GENERATED VIA SPACETRACK.ORG API","18 SPCS","55094","SPACEBEE-165","PAYLOAD","U","23001CP","2024-01-03 17:06:42","852672","15.3043757","0.0011728","97.4489","68.055","23.4498","336.7275","0","999","5565","0.00086273","0.00025425","0","4152805","0 SPACEBEE-165","1 55094U 23001CP  24003.71299598  .00025425  00000-0  86273-3 0  9995","2 55094  97.4489  68.0550 0011728  23.4498 336.7275 15.30437570 55658","2023-001CP","55094","6852.643","94.091","482.545","466.471","0"
"GENERATED VIA SPACETRACK.ORG API","18 SPCS","55094","SPACEBEE-165","PAYLOAD","U","23001CP","2024-01-03 17:06:42","852672","15.3043757","0.0011728","97.4489","68.055","23.4498","336.7275","0","999","5565","0.00086273","0.00025425","0","4152812","0 SPACEBEE-165","1 55094U 23001CP  24003.71299598  .00025425  00000-0  86273-3 0  9995","2 55094  97.4489  68.0550 0011728  23.4498 336.7275 15.30437570 55658","2023-001CP","55094","6852.643","94.091","482.545","466.471","0"
"GENERATED VIA SPACETRACK.ORG API","18 SPCS","55094","SPACEBEE-165","PAYLOAD","U","23001CP","2024-01-04 11:56:30","808320","15.30479847","0.0011692","97.449","68.842","20.7213","339.4499","0","999","5577","0.00088699","0.00026179","0","4153368","0 SPACEBEE-165","1 55094U 23001CP  24004.49757880  .00026179  00000-0  88699-3 0  9995","2 55094  97.4490  68.8420 0011692  20.7213 339.4499 15.30479847 55773","2023-001CP","55094","6852.517","94.088","482.394","466.370","0"
"GENERATED VIA SPACETRACK.ORG API","18 SPCS","55094","SPACEBEE-165","PAYLOAD","U","23001CP","2024-01-04 16:38:57","515136","15.30488887","0.001167","97.449","69.0388","20.1141","340.0558","0","999","5580","0.00079832","0.00023552","0","4153685","0 SPACEBEE-165","1 55094U 23001CP  24004.69372124  .00023552  00000-0  79832-3 0  9992","2 55094  97.4490  69.0388 0011670  20.1141 340.0558 15.30488887 55801","2023-001CP","55094","6852.490","94.088","482.351","466.358","0"
"GENERATED VIA SPACETRACK.ORG API","18 SPCS","55094","SPACEBEE-165","PAYLOAD","U","23001CP","2024-01-05 03:37:59","397024","15.30511772","0.0011687","97.449","69.4981","18.3996","341.7665","0","999","5587","0.00080277","0.00023701","0","4153931","0 SPACEBEE-165","1 55094U 23001CP  24005.15138191  .00023701  00000-0  80277-3 0  9999","2 55094  97.4490  69.4981 0011687  18.3996 341.7665 15.30511772 55873","2023-001CP","55094","6852.421","94.086","482.295","466.278","0"
"GENERATED VIA SPACETRACK.ORG API","18 SPCS","55094","SPACEBEE-165","PAYLOAD","U","23001CP","2024-01-05 03:37:59","397024","15.30511772","0.0011687","97.449","69.4981","18.3996","341.7665","0","999","5587","0.00080277","0.00023701","0","4154254","0 SPACEBEE-165","1 55094U 23001CP  24005.15138191  .00023701  00000-0  80277-3 0  9999","2 55094  97.4490  69.4981 0011687  18.3996 341.7665 15.30511772 55873","2023-001CP","55094","6852.421","94.086","482.295","466.278","0"
"GENERATED VIA SPACETRACK.ORG API","18 SPCS","55094","SPACEBEE-165","PAYLOAD","U","23001CP","2024-01-06 03:10:09","958944","15.30563454","0.0011569","97.4491","70.4819","14.9286","345.2294","0","999","5602","0.00088218","0.00026102","0","4155067","0 SPACEBEE-165","1 55094U 23001CP  24006.13205971  .00026102  00000-0  88218-3 0  9990","2 55094  97.4491  70.4819 0011569  14.9286 345.2294 15.30563454 56028","2023-001CP","55094","6852.267","94.083","482.059","466.205","0"
"GENERATED VIA SPACETRACK.ORG API","18 SPCS","55094","SPACEBEE-165","PAYLOAD","U","23001CP","2024-01-06 17:17:26","975040","15.30592005","0.0011496","97.4492","71.0723","13.0205","347.133","0","999","5611","0.00080167","0.00023726","0","4155301","0 SPACEBEE-165","1 55094U 23001CP  24006.72045110  .00023726  00000-0  80167-3 0  9996","2 55094  97.4492  71.0723 0011496  13.0205 347.1330 15.30592005 56116","2023-001CP","55094","6852.182","94.081","481.924","466.170","0"
"GENERATED VIA SPACETRACK.ORG API","18 SPCS","55094","SPACEBEE-165","PAYLOAD","U","23001CP","2024-01-06 17:17:26","975040","15.30592005","0.0011496","97.4492","71.0723","13.0205","347.133","0","999","5611","0.00080167","0.00023726","0","4155325","0 SPACEBEE-165","1 55094U 23001CP  24006.72045110  .00023726  00000-0  80167-3 0  9996","2 55094  97.4492  71.0723 0011496  13.0205 347.1330 15.30592005 56116","2023-001CP","55094","6852.182","94.081","481.924","466.170","0"
"GENERATED VIA SPACETRACK.ORG API","18 SPCS","55094","SPACEBEE-165","PAYLOAD","U","23001CP","2024-01-07 02:42:17","736192","15.30611924","0.001151","97.4492","71.466","11.6377","348.5128","0","999","5617","0.00077376","0.00022909","0","4155883","0 SPACEBEE-165","1 55094U 23001CP  24007.11270528  .00022909  00000-0  77376-3 0  9993","2 55094  97.4492  71.4660 0011510  11.6377 348.5128 15.30611924 56179","2023-001CP","55094","6852.122","94.080","481.874","466.101","0"
"GENERATED VIA SPACETRACK.ORG API","18 SPCS","55094","SPACEBEE-165","PAYLOAD","U","23001CP","2024-01-07 16:49:33","56256","15.30644878","0.0011393","97.4491","72.0562","9.8026","350.3435","0","999","5626","0.00088294","0.00026189","0","4156156","0 SPACEBEE-165","1 55094U 23001CP  24007.70107704  .00026189  00000-0  88294-3 0  9998","2 55094  97.4491  72.0562 0011393   9.8026 350.3435 15.30644878 56261","2023-001CP","55094","6852.024","94.078","481.696","466.083","0"
"GENERATED VIA SPACETRACK.ORG API","18 SPCS","55094","SPACEBEE-165","PAYLOAD","U","23001CP","2024-01-08 03:48:30","895488","15.30668854","0.0011373","97.4489","72.5156","8.1581","351.9843","0","999","5633","0.00087236","0.00025893","0","4156415","0 SPACEBEE-165","1 55094U 23001CP  24008.15869092  .00025893  00000-0  87236-3 0  9999","2 55094  97.4489  72.5156 0011373   8.1581 351.9843 15.30668854 56336","2023-001CP","55094","6851.953","94.077","481.610","466.025","0"
"GENERATED VIA SPACETRACK.ORG API","18 SPCS","55094","SPACEBEE-165","PAYLOAD","U","23001CP","2024-01-08 03:48:30","895488","15.30668854","0.0011373","97.4489","72.5156","8.1581","351.9843","0","999","5633","0.00087236","0.00025893","0","4156666","0 SPACEBEE-165","1 55094U 23001CP  24008.15869092  .00025893  00000-0  87236-3 0  9999","2 55094  97.4489  72.5156 0011373   8.1581 351.9843 15.30668854 56336","2023-001CP","55094","6851.953","94.077","481.610","466.025","0"
"GENERATED VIA SPACETRACK.ORG API","18 SPCS","55094","SPACEBEE-165","PAYLOAD","U","23001CP","2024-01-08 17:55:44","335488","15.30702143","0.0011269","97.4489","73.1058","6.0712","354.0663","0","999","5642","0.00093799","0.00027882","0","4156930","0 SPACEBEE-165","1 55094U 23001CP  24008.74704092  .00027882  00000-0  93799-3 0  9993","2 55094  97.4489  73.1058 0011269   6.0712 354.0663 15.30702143 56425","2023-001CP","55094","6851.853","94.074","481.440","465.997","0"
"GENERATED VIA SPACETRACK.ORG API","18 SPCS","55094","SPACEBEE-165","PAYLOAD","U","23001CP","2024-01-09 03:20:32","646336","15.30726225","0.0011278","97.4487","73.4996","4.549","355.5852","0","999","5648","0.0010099","0.00030056","0","4157515","0 SPACEBEE-165","1 55094U 23001CP  24009.13926674  .00030056  00000-0  10099-2 0  9997","2 55094  97.4487  73.4996 0011278   4.5490 355.5852 15.30726225 56482","2023-001CP","55094","6851.781","94.073","481.374","465.919","0"
"GENERATED VIA SPACETRACK.ORG API","18 SPCS","55094","SPACEBEE-165","PAYLOAD","U","23001CP","2024-01-09 15:53:36","204576","15.30761118","0.0011201","97.4485","74.0242","2.6919","357.438","0","999","5656","0.001078","0.00032131","0","4157762","0 SPACEBEE-165","1 55094U 23001CP  24009.66222459  .00032131  00000-0  10780-2 0  9998","2 55094  97.4485  74.0242 0011201   2.6919 357.4380 15.30761118 56568","2023-001CP","55094","6851.677","94.071","481.217","465.868","0"
"GENERATED VIA SPACETRACK.ORG API","18 SPCS","55094","SPACEBEE-165","PAYLOAD","U","23001CP","2024-01-09 15:53:36","204576","15.30761118","0.0011201","97.4485","74.0242","2.6919","357.438","0","999","5656","0.001078","0.00032131","0","4157773","0 SPACEBEE-165","1 55094U 23001CP  24009.66222459  .00032131  00000-0  10780-2 0  9998","2 55094  97.4485  74.0242 0011201   2.6919 357.4380 15.30761118 56568","2023-001CP","55094","6851.677","94.071","481.217","465.868","0"
"GENERATED VIA SPACETRACK.ORG API","18 SPCS","55094","SPACEBEE-165","PAYLOAD","U","23001CP","2024-01-10 02:52:30","997344","15.30790318","0.0011226","97.4484","74.4836","1.1063","359.0201","0","999","5663","0.0010609","0.00031646","0","4158336","0 SPACEBEE-165","1 55094U 23001CP  24010.11980321  .00031646  00000-0  10609-2 0  9999","2 55094  97.4484  74.4836 0011226   1.1063 359.0201 15.30790318 56633","2023-001CP","55094","6851.590","94.069","481.147","465.763","0"
